[{"CCSDS_OMM_VERS":"2.0","COMMENT":"GENERATED VIA SPACE-TRACK.ORG API","CREATION_DATE":"2017-11-17T23:20:13","ORIGINATOR":"18 SPCS","OBJECT_NAME":"UPSAT","OBJECT_ID":"1998-067LX","CENTER_NAME":"EARTH","REF_FRAME":"TEME","TIME_SYSTEM":"UTC","MEAN_ELEMENT_THEORY":"SGP4","EPOCH":"2017-11-17T14:13:58.391616","MEAN_MOTION":"15.62539408","ECCENTRICITY":"0.00022830","INCLINATION":"51.6385","RA_OF_ASC_NODE":"348.4035","ARG_OF_PERICENTER":"153.7703","MEAN_ANOMALY":"206.3408","EPHEMERIS_TYPE":"0","CLASSIFICATION_TYPE":"U","NORAD_CAT_ID":"42716","ELEMENT_SET_NO":"999","REV_AT_EPOCH":"2856","BSTAR":"0.00032904000000","MEAN_MOTION_DOT":"0.00029493","MEAN_MOTION_DDOT":"0.0000000000000","SEMIMAJOR_AXIS":"6758.461","PERIOD":"92.157","APOAPSIS":"381.869","PERIAPSIS":"378.783","OBJECT_TYPE":"PAYLOAD","RCS_SIZE":"SMALL","COUNTRY_CODE":"GREC","LAUNCH_DATE":"1998-11-20","SITE":"TTMTR","DECAY_DATE":null,"FILE":"2208115","GP_ID":"115682166","TLE_LINE0":"0 UPSAT","TLE_LINE1":"1 42716U 98067LX  17321.59303694 +.00029493 +00000-0 +32904-3 0  9991","TLE_LINE2":"2 42716 051.6385 348.4035 0002283 153.7703 206.3408 15.62539408028565"},{"CCSDS_OMM_VERS":"2.0","COMMENT":"GENERATED VIA SPACE-TRACK.ORG API","CREATION_DATE":"2017-11-18T07:25:09","ORIGINATOR":"18 SPCS","OBJECT_NAME":"UPSAT","OBJECT_ID":"1998-067LX","CENTER_NAME":"EARTH","REF_FRAME":"TEME","TIME_SYSTEM":"UTC","MEAN_ELEMENT_THEORY":"SGP4","EPOCH":"2017-11-17T21:54:27.080352","MEAN_MOTION":"15.62557398","ECCENTRICITY":"0.00022820","INCLINATION":"51.6385","RA_OF_ASC_NODE":"346.7891","ARG_OF_PERICENTER":"154.6844","MEAN_ANOMALY":"205.4262","EPHEMERIS_TYPE":"0","CLASSIFICATION_TYPE":"U","NORAD_CAT_ID":"42716","ELEMENT_SET_NO":"999","REV_AT_EPOCH":"2861","BSTAR":"0.00032380000000","MEAN_MOTION_DOT":"0.00029034","MEAN_MOTION_DDOT":"0.0000000000000","SEMIMAJOR_AXIS":"6758.409","PERIOD":"92.156","APOAPSIS":"381.817","PERIAPSIS":"378.732","OBJECT_TYPE":"PAYLOAD","RCS_SIZE":"SMALL","COUNTRY_CODE":"GREC","LAUNCH_DATE":"1998-11-20","SITE":"TTMTR","DECAY_DATE":null,"FILE":"2208285","GP_ID":"115692041","TLE_LINE0":"0 UPSAT","TLE_LINE1":"1 42716U 98067LX  17321.91281343 +.00029034 +00000-0 +32380-3 0  9992","TLE_LINE2":"2 42716 051.6385 346.7891 0002282 154.6844 205.4262 15.62557398028613"},{"CCSDS_OMM_VERS":"2.0","COMMENT":"GENERATED VIA SPACE-TRACK.ORG API","CREATION_DATE":"2017-11-18T07:04:59","ORIGINATOR":"18 SPCS","OBJECT_NAME":"UPSAT","OBJECT_ID":"1998-067LX","CENTER_NAME":"EARTH","REF_FRAME":"TEME","TIME_SYSTEM":"UTC","MEAN_ELEMENT_THEORY":"SGP4","EPOCH":"2017-11-18T00:58:38.479296","MEAN_MOTION":"15.62564840","ECCENTRICITY":"0.00022880","INCLINATION":"51.6384","RA_OF_ASC_NODE":"346.1433","ARG_OF_PERICENTER":"155.0631","MEAN_ANOMALY":"205.0474","EPHEMERIS_TYPE":"0","CLASSIFICATION_TYPE":"U","NORAD_CAT_ID":"42716","ELEMENT_SET_NO":"999","REV_AT_EPOCH":"2863","BSTAR":"0.00032559000000","MEAN_MOTION_DOT":"0.00029207","MEAN_MOTION_DDOT":"0.0000000000000","SEMIMAJOR_AXIS":"6758.388","PERIOD":"92.156","APOAPSIS":"381.799","PERIAPSIS":"378.707","OBJECT_TYPE":"PAYLOAD","RCS_SIZE":"SMALL","COUNTRY_CODE":"GREC","LAUNCH_DATE":"1998-11-20","SITE":"TTMTR","DECAY_DATE":null,"FILE":"2208257","GP_ID":"115684311","TLE_LINE0":"0 UPSAT","TLE_LINE1":"1 42716U 98067LX  17322.04072314  .00029207  00000-0  32559-3 0  9993","TLE_LINE2":"2 42716  51.6384 346.1433 0002288 155.0631 205.0474 15.62564840 28636"},{"CCSDS_OMM_VERS":"2.0","COMMENT":"GENERATED VIA SPACE-TRACK.ORG API","CREATION_DATE":"2017-11-18T15:14:31","ORIGINATOR":"18 SPCS","OBJECT_NAME":"UPSAT","OBJECT_ID":"1998-067LX","CENTER_NAME":"EARTH","REF_FRAME":"TEME","TIME_SYSTEM":"UTC","MEAN_ELEMENT_THEORY":"SGP4","EPOCH":"2017-11-18T13:15:23.570496","MEAN_MOTION":"15.62594848","ECCENTRICITY":"0.00022530","INCLINATION":"51.6383","RA_OF_ASC_NODE":"343.5610","ARG_OF_PERICENTER":"155.8301","MEAN_ANOMALY":"204.2800","EPHEMERIS_TYPE":"0","CLASSIFICATION_TYPE":"U","NORAD_CAT_ID":"42716","ELEMENT_SET_NO":"999","REV_AT_EPOCH":"2871","BSTAR":"0.00036044000000","MEAN_MOTION_DOT":"0.00032441","MEAN_MOTION_DDOT":"0.0000000000000","SEMIMAJOR_AXIS":"6758.301","PERIOD":"92.154","APOAPSIS":"381.689","PERIAPSIS":"378.644","OBJECT_TYPE":"PAYLOAD","RCS_SIZE":"SMALL","COUNTRY_CODE":"GREC","LAUNCH_DATE":"1998-11-20","SITE":"TTMTR","DECAY_DATE":null,"FILE":"2208397","GP_ID":"115694522","TLE_LINE0":"0 UPSAT","TLE_LINE1":"1 42716U 98067LX  17322.55235614  .00032441  00000-0  36044-3 0  9990","TLE_LINE2":"2 42716  51.6383 343.5610 0002253 155.8301 204.2800 15.62594848 28711"},{"CCSDS_OMM_VERS":"2.0","COMMENT":"GENERATED VIA SPACE-TRACK.ORG API","CREATION_DATE":"2017-11-19T07:19:26","ORIGINATOR":"18 SPCS","OBJECT_NAME":"UPSAT","OBJECT_ID":"1998-067LX","CENTER_NAME":"EARTH","REF_FRAME":"TEME","TIME_SYSTEM":"UTC","MEAN_ELEMENT_THEORY":"SGP4","EPOCH":"2017-11-19T04:36:18.762912","MEAN_MOTION":"15.62626549","ECCENTRICITY":"0.00022780","INCLINATION":"51.6384","RA_OF_ASC_NODE":"340.3317","ARG_OF_PERICENTER":"157.9098","MEAN_ANOMALY":"202.1995","EPHEMERIS_TYPE":"0","CLASSIFICATION_TYPE":"U","NORAD_CAT_ID":"42716","ELEMENT_SET_NO":"999","REV_AT_EPOCH":"2881","BSTAR":"0.00029704000000","MEAN_MOTION_DOT":"0.00026655","MEAN_MOTION_DDOT":"0.0000000000000","SEMIMAJOR_AXIS":"6758.210","PERIOD":"92.152","APOAPSIS":"381.614","PERIAPSIS":"378.535","OBJECT_TYPE":"PAYLOAD","RCS_SIZE":"SMALL","COUNTRY_CODE":"GREC","LAUNCH_DATE":"1998-11-20","SITE":"TTMTR","DECAY_DATE":null,"FILE":"2208712","GP_ID":"115708931","TLE_LINE0":"0 UPSAT","TLE_LINE1":"1 42716U 98067LX  17323.19188383  .00026655  00000-0  29704-3 0  9996","TLE_LINE2":"2 42716  51.6384 340.3317 0002278 157.9098 202.1995 15.62626549 28811"},{"CCSDS_OMM_VERS":"2.0","COMMENT":"GENERATED VIA SPACE-TRACK.ORG API","CREATION_DATE":"2017-11-19T15:12:20","ORIGINATOR":"18 SPCS","OBJECT_NAME":"UPSAT","OBJECT_ID":"1998-067LX","CENTER_NAME":"EARTH","REF_FRAME":"TEME","TIME_SYSTEM":"UTC","MEAN_ELEMENT_THEORY":"SGP4","EPOCH":"2017-11-19T12:16:45.899040","MEAN_MOTION":"15.62645126","ECCENTRICITY":"0.00022350","INCLINATION":"51.6383","RA_OF_ASC_NODE":"338.7175","ARG_OF_PERICENTER":"158.2399","MEAN_ANOMALY":"201.8691","EPHEMERIS_TYPE":"0","CLASSIFICATION_TYPE":"U","NORAD_CAT_ID":"42716","ELEMENT_SET_NO":"999","REV_AT_EPOCH":"2886","BSTAR":"0.00031055000000","MEAN_MOTION_DOT":"0.00027917","MEAN_MOTION_DDOT":"0.0000000000000","SEMIMAJOR_AXIS":"6758.156","PERIOD":"92.151","APOAPSIS":"381.532","PERIAPSIS":"378.511","OBJECT_TYPE":"PAYLOAD","RCS_SIZE":"SMALL","COUNTRY_CODE":"GREC","LAUNCH_DATE":"1998-11-20","SITE":"TTMTR","DECAY_DATE":null,"FILE":"2208878","GP_ID":"115719326","TLE_LINE0":"0 UPSAT","TLE_LINE1":"1 42716U 98067LX  17323.51164235  .00027917  00000-0  31055-3 0  9996","TLE_LINE2":"2 42716  51.6383 338.7175 0002235 158.2399 201.8691 15.62645126 28860"},{"CCSDS_OMM_VERS":"2.0","COMMENT":"GENERATED VIA SPACE-TRACK.ORG API","CREATION_DATE":"2017-11-20T07:59:33","ORIGINATOR":"18 SPCS","OBJECT_NAME":"UPSAT","OBJECT_ID":"1998-067LX","CENTER_NAME":"EARTH","REF_FRAME":"TEME","TIME_SYSTEM":"UTC","MEAN_ELEMENT_THEORY":"SGP4","EPOCH":"2017-11-19T21:29:17.983392","MEAN_MOTION":"15.62663570","ECCENTRICITY":"0.00022770","INCLINATION":"51.6383","RA_OF_ASC_NODE":"336.7795","ARG_OF_PERICENTER":"159.9586","MEAN_ANOMALY":"200.1498","EPHEMERIS_TYPE":"0","CLASSIFICATION_TYPE":"U","NORAD_CAT_ID":"42716","ELEMENT_SET_NO":"999","REV_AT_EPOCH":"2892","BSTAR":"0.00024667000000","MEAN_MOTION_DOT":"0.00022064","MEAN_MOTION_DDOT":"0.0000000000000","SEMIMAJOR_AXIS":"6758.103","PERIOD":"92.150","APOAPSIS":"381.507","PERIAPSIS":"378.429","OBJECT_TYPE":"PAYLOAD","RCS_SIZE":"SMALL","COUNTRY_CODE":"GREC","LAUNCH_DATE":"1998-11-20","SITE":"TTMTR","DECAY_DATE":null,"FILE":"2209219","GP_ID":"115742179","TLE_LINE0":"0 UPSAT","TLE_LINE1":"1 42716U 98067LX  17323.89534703 +.00022064 +00000-0 +24667-3 0  9997","TLE_LINE2":"2 42716 051.6383 336.7795 0002277 159.9586 200.1498 15.62663570028925"},{"CCSDS_OMM_VERS":"2.0","COMMENT":"GENERATED VIA SPACE-TRACK.ORG API","CREATION_DATE":"2017-11-20T07:08:16","ORIGINATOR":"18 SPCS","OBJECT_NAME":"UPSAT","OBJECT_ID":"1998-067LX","CENTER_NAME":"EARTH","REF_FRAME":"TEME","TIME_SYSTEM":"UTC","MEAN_ELEMENT_THEORY":"SGP4","EPOCH":"2017-11-20T02:05:33.908064","MEAN_MOTION":"15.62673265","ECCENTRICITY":"0.00022890","INCLINATION":"51.6383","RA_OF_ASC_NODE":"335.8109","ARG_OF_PERICENTER":"160.1297","MEAN_ANOMALY":"199.9786","EPHEMERIS_TYPE":"0","CLASSIFICATION_TYPE":"U","NORAD_CAT_ID":"42716","ELEMENT_SET_NO":"999","REV_AT_EPOCH":"2895","BSTAR":"0.00023722000000","MEAN_MOTION_DOT":"0.00021204","MEAN_MOTION_DDOT":"0.0000000000000","SEMIMAJOR_AXIS":"6758.075","PERIOD":"92.149","APOAPSIS":"381.487","PERIAPSIS":"378.393","OBJECT_TYPE":"PAYLOAD","RCS_SIZE":"SMALL","COUNTRY_CODE":"GREC","LAUNCH_DATE":"1998-11-20","SITE":"TTMTR","DECAY_DATE":null,"FILE":"2209190","GP_ID":"115734431","TLE_LINE0":"0 UPSAT","TLE_LINE1":"1 42716U 98067LX  17324.08719801  .00021204  00000-0  23722-3 0  9999","TLE_LINE2":"2 42716  51.6383 335.8109 0002289 160.1297 199.9786 15.62673265 28950"}]